<?xml version="1.0" encoding="utf-8" ?>
<kml xmlns="http://www.opengis.net/kml/2.2">
<Document id="root_doc">
<Schema name="wshds" id="wshds">
	<SimpleField name="area_ha" type="float"></SimpleField>
	<SimpleField name="localcode_ltree" type="string"></SimpleField>
	<SimpleField name="refine_method" type="string"></SimpleField>
	<SimpleField name="wscode_ltree" type="string"></SimpleField>
	<SimpleField name="elev_site" type="float"></SimpleField>
	<SimpleField name="elev_min" type="float"></SimpleField>
	<SimpleField name="elev_max" type="float"></SimpleField>
	<SimpleField name="elev_median" type="float"></SimpleField>
	<SimpleField name="elev_p60" type="float"></SimpleField>
	<SimpleField name="aspect" type="string"></SimpleField>
	<SimpleField name="area_km" type="float"></SimpleField>
</Schema>
<Folder><name>wshds</name>
  <Placemark>
	<name>197962</name>
	<Style><LineStyle><color>ff0000ff</color></LineStyle><PolyStyle><fill>0</fill></PolyStyle></Style>
	<ExtendedData><SchemaData schemaUrl="#wshds">
		<SimpleData name="area_ha">3626.29</SimpleData>
		<SimpleData name="localcode_ltree">400.431358.585806.071935</SimpleData>
		<SimpleData name="refine_method">DEM</SimpleData>
		<SimpleData name="wscode_ltree">400.431358.585806.071935</SimpleData>
		<SimpleData name="elev_site">631</SimpleData>
		<SimpleData name="elev_min">654</SimpleData>
		<SimpleData name="elev_max">1822</SimpleData>
		<SimpleData name="elev_median">1166</SimpleData>
		<SimpleData name="elev_p60">1119</SimpleData>
		<SimpleData name="aspect">E</SimpleData>
		<SimpleData name="area_km">36.3</SimpleData>
	</SchemaData></ExtendedData>
      <Polygon><outerBoundaryIs><LinearRing><coordinates>-126.797263506,54.33164652 -126.797263503,54.331646521 -126.796762008,54.331884074 -126.796240163,54.3322461 -126.795697979,54.332732619 -126.795355077,54.333295685 -126.795355077,54.333295685 -126.795010724,54.333789815 -126.794781466,54.334241091 -126.794668745,54.334718466 -126.794680708,54.335356945 -126.794936675,54.335460504 -126.794936677,54.335460506 -126.794936679,54.335460507 -126.79493668,54.335460508 -126.794936681,54.33546051 -126.794936681,54.335460512 -126.794936681,54.335460514 -126.79493668,54.335460515 -126.794936679,54.335460517 -126.794712439,54.335658181 -126.794712439,54.335658181 -126.794373148,54.335929653 -126.794373148,54.335929653 -126.793918789,54.336274931 -126.793636933,54.336814145 -126.793498143,54.337330996 -126.793498142,54.337330998 -126.793498141,54.337330999 -126.793498139,54.337331 -126.792818391,54.337799004 -126.792414583,54.338253075 -126.792286722,54.33869322 -126.792152379,54.339254105 -126.792152378,54.339254107 -126.79174388,54.339794993 -126.791743878,54.339794995 -126.79106123,54.340315878 -126.79106123,54.340315879 -126.790490347,54.340696969 -126.790034184,54.341106126 -126.789693749,54.341429504 -126.789348305,54.341845682 -126.78899788,54.342354661 -126.788565439,54.34305391 -126.788565439,54.34305391 -126.788134411,54.343726216 -126.787848619,54.344336259 -126.787706614,54.344910982 -126.788451407,54.345590855 -126.788451408,54.345590856 -126.788904429,54.346228428 -126.78890443,54.34622843 -126.789065662,54.346823701 -126.789065662,54.346823702 -126.789068909,54.34733616 -126.789068909,54.347336161 -126.788951123,54.347810455 -126.78888794,54.348222813 -126.788915529,54.34850499 -126.788979267,54.34871891 -126.789138239,54.348910603 -126.789329416,54.349075916 -126.789542798,54.349209672 -126.789542799,54.349209673 -126.78976969,54.349378635 -126.789769691,54.349378636 -126.789987425,54.349622345 -126.789987426,54.349622346 -126.790159892,54.34994514 -126.790159892,54.349945142 -126.790181963,54.350107358 -126.790232374,54.35031504 -126.790232374,54.35031504 -126.790266438,54.350540398 -126.790266438,54.350540399 -126.79025439,54.350764918 -126.790259638,54.350953791 -126.790259638,54.350953791 -126.790263446,54.351169615 -126.790263446,54.351169617 -126.790263445,54.351169619 -126.790123227,54.351360823 -126.790123226,54.351360824 -126.789863,54.351621743 -126.789862998,54.351621745 -126.789347305,54.351958898 -126.788812777,54.352455511 -126.788812776,54.352455512 -126.788147773,54.352929752 -126.787635436,54.353426771 -126.787635436,54.353426772 -126.787158319,54.35387249 -126.786941692,54.354434856 -126.786941692,54.354434856 -126.786714286,54.354975054 -126.786714286,54.354975054 -126.7864761,54.355493074 -126.786476098,54.355493076 -126.786476097,54.355493077 -126.785987811,54.355827719 -126.785987809,54.35582772 -126.78548074,54.356078197 -126.785480738,54.356078198 -126.785480735,54.356078199 -126.784932842,54.356186145 -126.784576178,54.356266651 -126.784576176,54.356266652 -126.784324319,54.356296881 -126.784199253,54.35633519 -126.783845217,54.356588418 -126.783845215,54.35658842 -126.783845212,54.356588421 -126.783174963,54.356775893 -126.783174959,54.356775894 -126.782188482,54.356897613 -126.782188479,54.356897613 -126.782188476,54.356897613 -126.781625122,54.356847299 -126.78162512,54.356847299 -126.781128855,54.356758267 -126.780869021,54.356724524 -126.780531287,54.35670832 -126.780531286,54.35670832 -126.780117591,54.356673742 -126.780117588,54.356673741 -126.779716734,54.356591458 -126.779140805,54.35652092 -126.779140804,54.35652092 -126.778759315,54.356459969 -126.778374117,54.35646785 -126.778374116,54.35646785 -126.778020798,54.356455359 -126.778020798,54.356455359 -126.777698391,54.356440429 -126.777698391,54.356440429 -126.777376462,54.356416518 -126.777376462,54.356416518 -126.777055028,54.356383625 -126.776716762,54.356377395 -126.77671676,54.356377395 -126.776364575,54.356343935 -126.776364572,54.356343934 -126.776066851,54.356283507 -126.77606685,54.356283507 -126.775746245,54.356203683 -126.775746243,54.356203683 -126.775439265,54.356093147 -126.775439265,54.356093147 -126.775172807,54.355992344 -126.775172805,54.355992343 -126.774928305,54.355864977 -126.774928304,54.355864976 -126.774705763,54.355711048 -126.774482413,54.355572088 -126.77414902,54.355476045 -126.774149018,54.355476044 -126.773862221,54.355371864 -126.773862221,54.355371864 -126.77362108,54.355277517 -126.773621079,54.355277517 -126.773371131,54.355156042 -126.773371129,54.355156041 -126.773160077,54.35501131 -126.773160076,54.355011309 -126.772966424,54.354860904 -126.772966422,54.354860902 -126.772826832,54.354659559 -126.772639951,54.354447352 -126.772263903,54.354191698 -126.772024053,54.3540734 -126.771757081,54.353982574 -126.771464104,54.353898255 -126.771327192,54.353868758 -126.77132719,54.353868757 -126.77105482,54.353782819 -126.770706559,54.353677497 -126.770706559,54.353677497 -126.770368689,54.353569367 -126.770368688,54.353569366 -126.770041735,54.353449456 -126.770041733,54.353449455 -126.769771813,54.35331862 -126.769771813,54.35331862 -126.769532149,54.353197323 -126.769276609,54.353084719 -126.769276607,54.353084718 -126.76903808,54.352942474 -126.769038079,54.352942473 -126.768816551,54.352770564 -126.768816551,54.352770563 -126.768610407,54.352598951 -126.768610406,54.35259895 -126.768449723,54.352440158 -126.768449723,54.352440158 -126.768289362,54.352275379 -126.768129018,54.352110601 -126.767889027,54.351932364 -126.767889027,54.351932364 -126.767621197,54.351731635 -126.767621196,54.351731634 -126.76734801,54.351471875 -126.767348009,54.351471873 -126.767176054,54.351205993 -126.767176053,54.351205992 -126.767082812,54.350970536 -126.767082812,54.350970535 -126.767030405,54.35080176 -126.766962633,54.350632705 -126.766880617,54.350442408 -126.766752008,54.350260234 -126.766752007,54.350260232 -126.766684397,54.350088175 -126.766684397,54.350088174 -126.766632153,54.349916406 -126.766564544,54.349744358 -126.766460412,54.349583614 -126.766335633,54.349425481 -126.76613211,54.349205967 -126.765957381,54.349022935 -126.765957381,54.349022935 -126.765817705,54.348855541 -126.765817705,54.34885554 -126.765699189,54.348676553 -126.765699188,54.348676553 -126.765597656,54.34846791 -126.765489545,54.348286117 -126.765390222,54.348131451 -126.765390222,54.348131451 -126.76526119,54.347894337 -126.765069243,54.347619092 -126.76475669,54.347266707 -126.764387221,54.346923255 -126.763839108,54.346595462 -126.763219592,54.346260354 -126.763219592,54.346260354 -126.762484339,54.345821211 -126.761880979,54.345535337 -126.761880977,54.345535336 -126.761395412,54.345189717 -126.760272811,54.345177867 -126.759980279,54.345181422 -126.759980279,54.345181422 -126.759672849,54.345175714 -126.759672846,54.345175714 -126.759672843,54.345175714 -126.759507522,54.345134688 -126.759507519,54.345134687 -126.759299864,54.345054923 -126.758740909,54.344864742 -126.757830713,54.344719975 -126.756861335,54.344626047 -126.756209321,54.34463789 -126.756209318,54.34463789 -126.755969581,54.344613458 -126.755969578,54.344613457 -126.755782504,54.344564031 -126.755782502,54.34456403 -126.755782502,54.34456403 -126.755782502,54.34456403 -126.755737362,54.344545208 -126.755495668,54.3444628 -126.755495667,54.3444628 -126.755299933,54.344384245 -126.755299933,54.344384245 -126.755119885,54.344299984 -126.754989763,54.344240635 -126.754814516,54.344162455 -126.75459413,54.344065461 -126.754594129,54.34406546 -126.754514445,54.344022024 -126.754514444,54.344022024 -126.754385305,54.343944714 -126.7542304,54.34386991 -126.7542304,54.343869909 -126.754086059,54.343789315 -126.754086058,54.343789314 -126.753952282,54.343702919 -126.75395228,54.343702919 -126.753775682,54.343555791 -126.753775682,54.343555791 -126.753599552,54.343399692 -126.753599552,54.343399691 -126.753434179,54.343234799 -126.753434179,54.343234798 -126.753294413,54.343070384 -126.753152364,54.342947879 -126.752999253,54.342840145 -126.752789942,54.342728368 -126.752789941,54.342728367 -126.752522095,54.342561571 -126.752303366,54.342434638 -126.752073737,54.342319482 -126.751822145,54.342230892 -126.751559491,54.342157081 -126.751372053,54.342114631 -126.751372052,54.34211463 -126.751149881,54.342050559 -126.751149881,54.342050559 -126.750862752,54.341955304 -126.750862749,54.341955303 -126.750862747,54.341955302 -126.750685507,54.341820154 -126.750402959,54.341641088 -126.750135756,54.341494263 -126.750135756,54.341494263 -126.74993063,54.341368576 -126.749930629,54.341368575 -126.749930627,54.341368573 -126.749841763,54.341243057 -126.749841763,54.341243057 -126.749756606,54.341080658 -126.749756605,54.341080656 -126.749708876,54.340828059 -126.749395386,54.340746306 -126.749395385,54.340746306 -126.749102928,54.340654942 -126.749102927,54.340654942 -126.749102927,54.340654941 -126.749102926,54.340654941 -126.749102926,54.340654941 -126.749102925,54.340654941 -126.749102924,54.34065494 -126.748849986,54.340497399 -126.748555941,54.340404011 -126.748254681,54.340317483 -126.747901686,54.340238978 -126.747901683,54.340238978 -126.747901682,54.340238977 -126.747643152,54.340121284 -126.747205583,54.33996428 -126.747205582,54.33996428 -126.746759221,54.33974918 -126.746759219,54.339749179 -126.746379636,54.3394694 -126.746379635,54.339469399 -126.746379634,54.339469397 -126.746208386,54.339162556 -126.746208385,54.339162555 -126.746101497,54.338866896 -126.745884029,54.33865507 -126.745616739,54.33847927 -126.745616738,54.338479269 -126.745340016,54.338288312 -126.745340015,54.33828831 -126.745107655,54.338036253 -126.744991102,54.337917212 -126.744917207,54.33786189 -126.744917206,54.337861889 -126.744829421,54.337779343 -126.744726275,54.337696506 -126.744726273,54.337696504 -126.744634774,54.33755696 -126.744634774,54.33755696 -126.744536319,54.337388304 -126.744536319,54.337388303 -126.744456824,54.337123126 -126.744201786,54.336723811 -126.744201785,54.33672381 -126.744017874,54.33624292 -126.744017874,54.336242919 -126.743879191,54.335747892 -126.743879191,54.335747892 -126.743743576,54.335227957 -126.743471622,54.334763393 -126.743068099,54.334360304 -126.742669395,54.333963286 -126.742669395,54.333963286 -126.742251352,54.333544935 -126.742251351,54.333544935 -126.741831303,54.333069611 -126.741831303,54.33306961 -126.74140927,54.332537318 -126.740316966,54.332446938 -126.740316965,54.332446938 -126.739263532,54.332302348 -126.73926353,54.332302347 -126.738582616,54.332127769 -126.738052321,54.332011945 -126.73767261,54.331954879 -126.737350914,54.331930862 -126.737058946,54.33192539 -126.736781869,54.331929181 -126.736548374,54.3320107 -126.736548372,54.332010701 -126.736548369,54.332010702 -126.736548367,54.332010702 -126.736230135,54.332016711 -126.736230132,54.332016711 -126.735873012,54.331984034 -126.735480334,54.332007632 -126.735114594,54.332069681 -126.735114594,54.332069681 -126.73472995,54.332133376 -126.734729947,54.332133376 -126.734729945,54.332133376 -126.734729942,54.332133376 -126.734400854,54.332088242 -126.734400852,54.332088242 -126.734400849,54.332088241 -126.734117581,54.33198703 -126.733825632,54.33198155 -126.733394872,54.331982442 -126.732972888,54.332010473 -126.732972888,54.332010473 -126.73254419,54.332036374 -126.73254419,54.332036374 -126.732108764,54.332060146 -126.732108762,54.332060146 -126.731580021,54.332040216 -126.731120963,54.332027589 -126.730731574,54.332022257 -126.730731571,54.332022256 -126.730731568,54.332022256 -126.730731565,54.332022255 -126.730731562,54.332022253 -126.730731561,54.332022252 -126.730731559,54.33202225 -126.730429416,54.331426247 -126.729980005,54.330866427 -126.729216636,54.330390583 -126.729216636,54.330390583 -126.72854659,54.329958454 -126.727876388,54.329560271 -126.727876387,54.32956027 -126.727343219,54.329187642 -126.726820572,54.328841173 -126.726820571,54.328841172 -126.726433966,54.328507258 -126.726433965,54.328507257 -126.726066207,54.328110772 -126.726066207,54.328110772 -126.725698946,54.327705304 -126.725698946,54.327705304 -126.725332181,54.327290855 -126.72533218,54.327290854 -126.7250699,54.326872386 -126.724809324,54.326546838 -126.724809323,54.326546836 -126.724677165,54.326278646 -126.724416435,54.326048984 -126.724416434,54.326048984 -126.724154592,54.325746387 -126.723764958,54.325406418 -126.723247405,54.325062037 -126.723247405,54.325062037 -126.722728757,54.324706639 -126.722728757,54.324706639 -126.722209031,54.324340225 -126.722209029,54.324340224 -126.72181211,54.323916206 -126.720794378,54.323594329 -126.720794376,54.323594329 -126.719896938,54.323229764 -126.719896936,54.323229763 -126.719110046,54.32272045 -126.718351405,54.322349509 -126.717600857,54.322017669 -126.717600856,54.322017668 -126.716823241,54.321619385 -126.716823239,54.321619384 -126.716018415,54.321064758 -126.716018415,54.321064757 -126.715527095,54.320680884 -126.71490728,54.320303559 -126.714276494,54.31993901 -126.714276492,54.319939008 -126.714276491,54.319939007 -126.71389484,54.319519245 -126.713894839,54.319519243 -126.713894838,54.319519242 -126.713762285,54.319044269 -126.713762285,54.319044268 -126.71375646,54.318594669 -126.713749161,54.318172012 -126.713749161,54.318172012 -126.713747822,54.317641597 -126.713747822,54.317641597 -126.713806518,54.317230182 -126.713806518,54.317230181 -126.713931236,54.31683 -126.713931237,54.316829998 -126.71408468,54.31662015 -126.714156787,54.316428745 -126.714147592,54.316255772 -126.713992074,54.316010097 -126.713863807,54.315827875 -126.713734036,54.315672585 -126.713734035,54.315672583 -126.713678405,54.315566657 -126.713578521,54.315426916 -126.713578521,54.315426915 -126.713481453,54.315236294 -126.713481453,54.315236292 -126.713481453,54.31523629 -126.713481453,54.315236289 -126.713580523,54.314990446 -126.713580523,54.314990445 -126.713708525,54.314746161 -126.713708527,54.31474616 -126.713708528,54.314746159 -126.71370853,54.314746158 -126.714219284,54.31447016 -126.714219287,54.314470159 -126.714858664,54.314246545 -126.715459299,54.313951281 -126.715940412,54.313592819 -126.715929102,54.313242009 -126.715929102,54.313242009 -126.715933144,54.312891485 -126.715329529,54.31243956 -126.715329528,54.312439559 -126.714845878,54.311980904 -126.714845876,54.311980903 -126.714845876,54.311980901 -126.714845876,54.311980899 -126.714845876,54.311980897 -126.714845877,54.311980896 -126.714845879,54.311980894 -126.714845881,54.311980893 -126.715438392,54.311677487 -126.715911704,54.311335858 -126.71483621,54.311045796 -126.713656677,54.310783711 -126.712463764,54.310578292 -126.712463761,54.310578291 -126.712463758,54.31057829 -126.712463756,54.310578288 -126.712463754,54.310578287 -126.712463753,54.310578285 -126.712463753,54.310578283 -126.712457452,54.310137673 -126.712457453,54.310137672 -126.712457453,54.31013767 -126.712719813,54.309719123 -126.712719813,54.309719123 -126.712982669,54.309353533 -126.713112287,54.309018381 -126.713112288,54.30901838 -126.713372655,54.308604798 -126.713479846,54.308181318 -126.713567534,54.307770452 -126.713419043,54.307521922 -126.713255753,54.307294076 -126.713099907,54.307147289 -126.713099907,54.307147289 -126.712939452,54.306991417 -126.712673506,54.30679759 -126.712673505,54.306797589 -126.712673504,54.306797587 -126.712673503,54.306797585 -126.712673503,54.306797584 -126.712673504,54.306797582 -126.712673505,54.30679758 -126.713061016,54.306370424 -126.713061018,54.306370422 -126.713605534,54.305976212 -126.713605535,54.305976211 -126.713605537,54.30597621 -126.714375422,54.305676167 -126.715004269,54.305424389 -126.715492074,54.305220881 -126.715483624,54.304911074 -126.715291637,54.304491912 -126.715291637,54.304491912 -126.715291636,54.304491912 -126.715291636,54.304491911 -126.715291636,54.304491911 -126.715291636,54.30449191 -126.715291636,54.30449191 -126.715291636,54.304491909 -126.715291636,54.304491909 -126.715291636,54.304491908 -126.715291636,54.304491908 -126.715291637,54.304491908 -126.715291637,54.304491907 -126.715291637,54.304491907 -126.715291637,54.304491907 -126.715591916,54.304097053 -126.71576985,54.30365993 -126.715825429,54.303180537 -126.715830974,54.302803067 -126.715830974,54.302803067 -126.715841474,54.302335801 -126.715841474,54.302335801 -126.715875753,54.301901949 -126.715875753,54.301901948 -126.715944678,54.301582622 -126.715944679,54.30158262 -126.71594468,54.301582618 -126.715944682,54.301582617 -126.715944684,54.301582616 -126.715944686,54.301582615 -126.715944689,54.301582614 -126.715944692,54.301582614 -126.715944695,54.301582614 -126.715944698,54.301582614 -126.715944701,54.301582615 -126.716428099,54.301735607 -126.7164281,54.301735607 -126.716879794,54.301905977 -126.717317632,54.302049109 -126.717317632,54.302049109 -126.717770313,54.302201515 -126.718215265,54.302308825 -126.718215265,54.302308825 -126.718659875,54.302422121 -126.71901882,54.302447883 -126.719365938,54.302409501 -126.719701231,54.302306973 -126.719701232,54.302306973 -126.720054729,54.302214765 -126.720054729,54.302214765 -126.72037649,54.302140941 -126.720376491,54.302140941 -126.720666468,54.302085493 -126.720954755,54.301937126 -126.721249654,54.301730936 -126.721858612,54.301280979 -126.721858614,54.301280978 -126.722551196,54.300955447 -126.722551198,54.300955446 -126.723263513,54.300705198 -126.723263516,54.300705198 -126.723263519,54.300705197 -126.723263522,54.300705197 -126.723263525,54.300705197 -126.723263527,54.300705198 -126.72326353,54.300705199 -126.723263532,54.3007052 -126.723263534,54.300705201 -126.723321971,54.300760243 -126.723585468,54.30099895 -126.723585469,54.300998951 -126.723830136,54.301300236 -126.724047745,54.301535075 -126.724311561,54.301767779 -126.724718212,54.301269049 -126.724913746,54.300820258 -126.724895212,54.300475306 -126.724741337,54.300292612 -126.724609034,54.300152276 -126.724609033,54.300152274 -126.724609032,54.300152272 -126.724586482,54.30003498 -126.724586482,54.300034978 -126.724621872,54.299857849 -126.72463293,54.299657284 -126.724534483,54.29939872 -126.724534483,54.299398718 -126.724534483,54.299398716 -126.724534484,54.299398714 -126.724534486,54.299398712 -126.724849658,54.29916494 -126.725109356,54.298915128 -126.725313566,54.298649295 -126.725313567,54.298649294 -126.725313569,54.298649292 -126.725313571,54.298649291 -126.725313574,54.298649291 -126.725313576,54.29864929 -126.725313579,54.29864929 -126.725313582,54.29864929 -126.72630283,54.298733874 -126.72690398,54.298671294 -126.727185063,54.298528764 -126.727146095,54.298306291 -126.7268831,54.298058613 -126.726883099,54.298058612 -126.726696363,54.297821353 -126.726696362,54.297821352 -126.726572049,54.297567298 -126.726543312,54.297530798 -126.726543311,54.297530797 -126.726332975,54.297071351 -126.726332975,54.29707135 -126.7262288,54.296544987 -126.7262288,54.296544984 -126.726361622,54.295901232 -126.726361623,54.295901229 -126.726746078,54.295339129 -126.72674608,54.295339127 -126.72738216,54.294858677 -126.727382163,54.294858675 -126.728563254,54.294341549 -126.729718063,54.293743017 -126.729718065,54.293743016 -126.730032026,54.29362307 -126.730032029,54.293623069 -126.730032032,54.293623069 -126.730032035,54.293623069 -126.730492596,54.293631737 -126.730753735,54.293633655 -126.730753736,54.293633655 -126.730922438,54.293639827 -126.730922441,54.293639827 -126.730922443,54.293639828 -126.7313467,54.293749697 -126.731346701,54.293749697 -126.731800025,54.293890076 -126.731800026,54.293890077 -126.732251697,54.29406039 -126.732721683,54.294177101 -126.73319563,54.294221975 -126.733272382,54.29422342 -126.733272385,54.294223421 -126.733272387,54.294223421 -126.734239014,54.29443836 -126.735077836,54.294524048 -126.735696618,54.29438784 -126.736348434,54.294116405 -126.736992062,54.293744926 -126.737717767,54.293309062 -126.73771777,54.29330906 -126.73872444,54.292980347 -126.738724444,54.292980346 -126.739631851,54.292842543 -126.739631855,54.292842543 -126.739631859,54.292842543 -126.740421537,54.292952237 -126.74042154,54.292952238 -126.740421542,54.292952238 -126.741165448,54.293211893 -126.742148337,54.292692925 -126.742860372,54.292130917 -126.743053804,54.291560202 -126.742864069,54.291002292 -126.742427254,54.29046671 -126.742427254,54.29046671 -126.741991097,54.289919159 -126.741991097,54.289919159 -126.741991097,54.289919159 -126.741991096,54.289919158 -126.741991096,54.289919158 -126.741991096,54.289919158 -126.741991096,54.289919157 -126.741991095,54.289919156 -126.741920016,54.289252588 -126.741920016,54.289252588 -126.741849424,54.28857704 -126.741649795,54.287981976 -126.741322119,54.287449443 -126.740871029,54.286988514 -126.740424562,54.286536648 -126.74042456,54.286536646 -126.74042456,54.286536644 -126.740353997,54.285861094 -126.740268095,54.285185261 -126.740268095,54.285185261 -126.740196551,54.284527667 -126.739001139,54.283911936 -126.739001137,54.283911935 -126.738294925,54.283310362 -126.738294924,54.283310361 -126.737715952,54.282692191 -126.737141995,54.282200965 -126.73644611,54.281754397 -126.735627489,54.281367449 -126.73495124,54.281061081 -126.734951238,54.28106108 -126.734398384,54.280715068 -126.734398382,54.280715066 -126.734398381,54.280715065 -126.734095637,54.28025989 -126.734095636,54.280259888 -126.733914485,54.279735078 -126.733914484,54.279735077 -126.73383264,54.278987392 -126.73383264,54.278987391 -126.733832641,54.278987389 -126.733832642,54.278987388 -126.733832644,54.278987386 -126.733832646,54.278987385 -126.733832648,54.278987384 -126.733832651,54.278987383 -126.734950407,54.278774658 -126.73495041,54.278774658 -126.736102514,54.27868243 -126.736102515,54.27868243 -126.737262203,54.278638286 -126.737190719,54.277980706 -126.736493051,54.277568063 -126.73649305,54.277568062 -126.735917751,54.277102779 -126.73494588,54.276959664 -126.734026233,54.27686047 -126.733536715,54.277102978 -126.733536712,54.277102979 -126.733536709,54.27710298 -126.733536706,54.27710298 -126.733536703,54.27710298 -126.7335367,54.27710298 -126.733536697,54.277102979 -126.733536695,54.277102978 -126.733536693,54.277102977 -126.733536691,54.277102975 -126.733222659,54.27672949 -126.732826508,54.27632849 -126.732826507,54.276328489 -126.73232559,54.275659817 -126.731842251,54.275069051 -126.731842251,54.275069051 -126.7314776,54.27457911 -126.731477599,54.274579108 -126.731358226,54.274246352 -126.731358226,54.274246351 -126.731320886,54.27410614 -126.731320886,54.274106138 -126.731320886,54.274106137 -126.731320887,54.274106135 -126.731320888,54.274106134 -126.731365775,54.274062555 -126.731355085,54.274061752 -126.731355082,54.274061752 -126.731349025,54.274060462 -126.731349022,54.274060461 -126.73134902,54.27406046 -126.731349018,54.274060459 -126.731349016,54.274060457 -126.731261125,54.273954105 -126.731261124,54.273954103 -126.731133319,54.27370553 -126.731133319,54.273705528 -126.731133319,54.273705527 -126.731136809,54.273327062 -126.731136809,54.273327061 -126.73122656,54.272924227 -126.731226561,54.272924225 -126.731226562,54.272924224 -126.73148527,54.272595476 -126.731540264,54.272277871 -126.731572937,54.271962856 -126.731458646,54.271589123 -126.731458646,54.271589121 -126.731458647,54.271589119 -126.731458648,54.271589118 -126.731458649,54.271589116 -126.732289218,54.270946502 -126.73228922,54.270946502 -126.73313631,54.270438027 -126.733136313,54.270438026 -126.73408751,54.270115308 -126.734087513,54.270115307 -126.735134594,54.269911239 -126.735134596,54.269911238 -126.736281827,54.269809933 -126.736281828,54.269809933 -126.737441605,54.269759792 -126.73737062,54.269093227 -126.73737062,54.269093226 -126.737423202,54.268413995 -126.737423202,54.268413993 -126.737722071,54.267724398 -126.737722072,54.267724397 -126.738267231,54.267024436 -126.738267232,54.267024434 -126.738267234,54.267024433 -126.738267237,54.267024432 -126.73826724,54.267024431 -126.738267243,54.26702443 -126.738267246,54.26702443 -126.73947828,54.267065132 -126.740447813,54.266716736 -126.741160971,54.266313582 -126.741617727,54.265855676 -126.742065194,54.265286712 -126.742065195,54.26528671 -126.742770004,54.264754539 -126.742770005,54.264754538 -126.743605254,54.264207821 -126.744442302,54.263628168 -126.745157596,54.263090183 -126.745157599,54.263090182 -126.746005533,54.262716491 -126.746005535,54.26271649 -126.74698093,54.262414104 -126.747029795,54.261674864 -126.747029796,54.261674861 -126.74735066,54.261078547 -126.747350661,54.261078545 -126.747350664,54.261078544 -126.748076717,54.260654615 -126.74807672,54.260654613 -126.748076723,54.260654613 -126.749083999,54.260423716 -126.749084001,54.260423715 -126.750229932,54.260278301 -126.751361784,54.26007768 -126.751361787,54.26007768 -126.75136179,54.260077679 -126.751361793,54.26007768 -126.751361795,54.26007768 -126.751361798,54.260077681 -126.7513618,54.260077682 -126.752044388,54.260482972 -126.75204439,54.260482973 -126.752604889,54.26093691 -126.753733254,54.260925987 -126.753733256,54.260925987 -126.754881136,54.260964363 -126.756057858,54.26097429 -126.756057859,54.26097429 -126.757230509,54.261059046 -126.75838913,54.261119561 -126.759539471,54.261143945 -126.759539473,54.261143945 -126.760532203,54.261243305 -126.76133704,54.261315197 -126.761337044,54.261315197 -126.761337047,54.261315198 -126.76176788,54.261488005 -126.761767881,54.261488006 -126.762192456,54.261681682 -126.762192456,54.261681682 -126.762487017,54.261819 -126.762487018,54.261819 -126.762671189,54.26191531 -126.763366642,54.262117003 -126.764379431,54.26219273 -126.765447836,54.262155608 -126.766430116,54.261849194 -126.767276876,54.261461348 -126.767727559,54.261141074 -126.76772756,54.261141073 -126.768154118,54.260888273 -126.76815412,54.260888272 -126.768553773,54.260722874 -126.768553775,54.260722873 -126.768553777,54.260722873 -126.76900529,54.260639334 -126.769005291,54.260639334 -126.76940705,54.260592835 -126.769407054,54.260592835 -126.769857075,54.260600165 -126.770288737,54.260600163 -126.770681383,54.260532511 -126.771032764,54.260344232 -126.771032767,54.260344231 -126.77103277,54.26034423 -126.771260028,54.260306484 -126.771591315,54.260237693 -126.771591318,54.260237693 -126.771591321,54.260237693 -126.771591323,54.260237693 -126.772433686,54.260341171 -126.773337761,54.260407819 -126.774494823,54.260402219 -126.775653508,54.26036668 -126.775653512,54.26036668 -126.776418774,54.260444728 -126.776418778,54.260444729 -126.776917917,54.260585786 -126.776917919,54.260585787 -126.776917922,54.260585788 -126.776917923,54.260585789 -126.777150915,54.260789851 -126.777946285,54.260561801 -126.777946288,54.2605618 -126.77794629,54.2605618 -126.777946293,54.2605618 -126.777946296,54.2605618 -126.777946299,54.260561801 -126.779140307,54.26091643 -126.779140307,54.26091643 -126.780072131,54.261197297 -126.780072132,54.261197297 -126.780660272,54.261396911 -126.780660275,54.261396913 -126.78102555,54.261616396 -126.781025551,54.261616397 -126.781361472,54.26187429 -126.781361472,54.26187429 -126.7819358,54.262331351 -126.7819358,54.262331351 -126.782357248,54.26268071 -126.782357249,54.26268071 -126.782629848,54.26291047 -126.78262985,54.262910472 -126.782797082,54.263196219 -126.782991538,54.263483475 -126.783293476,54.263770698 -126.783715547,54.263886336 -126.784125131,54.263884878 -126.784125134,54.263884879 -126.784125138,54.263884879 -126.78412514,54.26388488 -126.784125143,54.263884881 -126.784125145,54.263884883 -126.784125146,54.263884885 -126.784306752,54.264220837 -126.784645798,54.264484774 -126.785006262,54.26473112 -126.785006262,54.26473112 -126.785354915,54.264975257 -126.785354916,54.264975257 -126.785670315,54.265234759 -126.785670316,54.26523476 -126.785852132,54.265471826 -126.78601751,54.265537794 -126.786017512,54.265537795 -126.786017514,54.265537796 -126.786017516,54.265537798 -126.786017516,54.2655378 -126.786080271,54.26579965 -126.786147032,54.265986667 -126.786294494,54.266228096 -126.786294494,54.266228097 -126.786400312,54.266577646 -126.786400312,54.266577647 -126.786388126,54.267027898 -126.786388126,54.267027899 -126.786388125,54.267027901 -126.785943054,54.267627032 -126.785943054,54.267627032 -126.785498668,54.268181214 -126.785498668,54.268181214 -126.785054985,54.268690473 -126.784747991,54.269164266 -126.785016196,54.269286061 -126.785016198,54.269286062 -126.785283714,54.269452789 -126.785283716,54.26945279 -126.785550517,54.269664452 -126.785917789,54.269689182 -126.785917789,54.269689182 -126.787079258,54.269797405 -126.78707926,54.269797405 -126.788250932,54.270001708 -126.788250934,54.270001709 -126.788250937,54.27000171 -126.788250939,54.270001711 -126.788250941,54.270001713 -126.788250942,54.270001714 -126.788250943,54.270001716 -126.788250943,54.270001718 -126.788250942,54.270001719 -126.788250941,54.270001721 -126.78825094,54.270001722 -126.787545981,54.27054614 -126.787545978,54.270546142 -126.787545976,54.270546143 -126.787545972,54.270546144 -126.787344591,54.270578402 -126.787298447,54.271152887 -126.787436197,54.271575921 -126.787661555,54.271860735 -126.787984186,54.271986518 -126.788355172,54.272038276 -126.788738237,54.272087248 -126.78873824,54.272087249 -126.788738242,54.27208725 -126.788738245,54.272087251 -126.788738247,54.272087252 -126.788738248,54.272087253 -126.788738249,54.272087255 -126.788738249,54.272087257 -126.788738249,54.272087258 -126.788738248,54.27208726 -126.788738247,54.272087262 -126.788496366,54.272333542 -126.788496365,54.272333543 -126.78816146,54.272628047 -126.788161459,54.272628048 -126.787454383,54.273115492 -126.787390974,54.273693659 -126.787390974,54.27369366 -126.787190894,54.274210381 -126.787190893,54.274210382 -126.787190892,54.274210384 -126.787190891,54.274210385 -126.78671145,54.274526213 -126.78671145,54.274526214 -126.786229439,54.274794041 -126.786229437,54.274794042 -126.786229435,54.274794043 -126.785610572,54.274972454 -126.785130881,54.275292263 -126.784654212,54.27568304 -126.784309753,54.276186117 -126.784309752,54.276186117 -126.783862375,54.276762217 -126.783862374,54.276762219 -126.783282197,54.277299919 -126.783282195,54.277299921 -126.782553268,54.277715018 -126.78215665,54.278044334 -126.781843118,54.278352192 -126.782261292,54.278383862 -126.782261293,54.278383862 -126.782714012,54.27844013 -126.782714015,54.27844013 -126.782714017,54.278440131 -126.78271402,54.278440132 -126.782714022,54.278440134 -126.782714023,54.278440135 -126.782714024,54.278440137 -126.782837766,54.278900888 -126.783305858,54.279401927 -126.783952866,54.279877289 -126.784768097,54.280239869 -126.784768099,54.28023987 -126.784768101,54.280239872 -126.784768102,54.280239874 -126.784768103,54.280239875 -126.784840842,54.280888467 -126.784840842,54.280888467 -126.784913093,54.281546039 -126.784986297,54.282185649 -126.784986297,54.282185649 -126.785056143,54.282888117 -126.785056143,54.282888118 -126.785056143,54.28288812 -126.784746451,54.283505713 -126.78474645,54.283505714 -126.784390241,54.284035549 -126.78439024,54.28403555 -126.783987535,54.28447762 -126.784512781,54.284741976 -126.784512782,54.284741977 -126.784996578,54.285047523 -126.784996579,54.285047524 -126.784996581,54.285047525 -126.785301076,54.285417707 -126.785301077,54.285417708 -126.785530257,54.285791483 -126.785828878,54.286048681 -126.786203724,54.286253338 -126.786203724,54.286253338 -126.786579477,54.286472988 -126.786579478,54.286472989 -126.786882584,54.286710283 -126.786882585,54.286710285 -126.786882586,54.286710286 -126.787013387,54.286977384 -126.787013387,54.286977386 -126.787013387,54.286977388 -126.786983854,54.287209576 -126.786983854,54.287209577 -126.786908068,54.287412954 -126.786847701,54.287583643 -126.786826548,54.287787024 -126.786819122,54.288116498 -126.78689053,54.288408476 -126.786959073,54.288658451 -126.787024751,54.288866414 -126.787024752,54.288866415 -126.78704084,54.289139397 -126.787103305,54.289407232 -126.787172817,54.289639245 -126.787172817,54.289639246 -126.787216425,54.289876765 -126.787330087,54.290017692 -126.787428886,54.290117393 -126.787553111,54.290188584 -126.787891173,54.290092912 -126.787891175,54.290092911 -126.788480767,54.28998686 -126.788480768,54.28998686 -126.789321911,54.289870438 -126.789321914,54.289870438 -126.789321917,54.289870438 -126.78932192,54.289870438 -126.789321922,54.289870439 -126.789321925,54.28987044 -126.789321927,54.289870441 -126.789321928,54.289870443 -126.789321929,54.289870444 -126.78932193,54.289870446 -126.789405768,54.290600147 -126.789490083,54.291320857 -126.789684873,54.291923737 -126.789871155,54.292462537 -126.790048913,54.292937248 -126.790048913,54.29293725 -126.790048913,54.292937252 -126.789846807,54.293426974 -126.789846806,54.293426976 -126.789394508,54.293965055 -126.789394507,54.293965057 -126.788592643,54.294589613 -126.788592642,54.294589614 -126.787684515,54.295189237 -126.7872875,54.295491592 -126.78690168,54.295840097 -126.786695212,54.296250831 -126.786627875,54.296519278 -126.78681224,54.296711436 -126.787113654,54.296949699 -126.787113654,54.296949699 -126.787113654,54.2969497 -126.787113654,54.2969497 -126.787113655,54.296949701 -126.787113655,54.296949701 -126.787113655,54.296949701 -126.787328705,54.297238321 -126.787328706,54.297238323 -126.787441779,54.297518079 -126.787441779,54.297518079 -126.787514116,54.29779309 -126.787514116,54.29779309 -126.787546015,54.297994444 -126.787597531,54.298180178 -126.787719849,54.298351225 -126.78771985,54.298351228 -126.787755689,54.298542664 -126.787838323,54.298784895 -126.787838323,54.298784897 -126.787838323,54.298784899 -126.78773953,54.29906676 -126.787608143,54.299446907 -126.787608143,54.299446908 -126.787350528,54.299887668 -126.787148875,54.300463295 -126.787089703,54.301120449 -126.787162024,54.301778016 -126.787299937,54.302358876 -126.787299937,54.302358876 -126.787390381,54.302774053 -126.787390381,54.302774053 -126.787433356,54.303023557 -126.787433356,54.303023558 -126.787424188,54.303194194 -126.787424188,54.303194195 -126.787398245,54.303391487 -126.787398245,54.303391489 -126.787327177,54.30356998 -126.787272438,54.303730786 -126.787216733,54.303909554 -126.787216733,54.303909554 -126.787153182,54.304075193 -126.787112037,54.304237254 -126.787136923,54.304537362 -126.787136923,54.304537363 -126.787103092,54.304881343 -126.787103092,54.304881343 -126.78702815,54.305259529 -126.787028149,54.30525953 -126.786870342,54.305590244 -126.78687034,54.305590247 -126.786642011,54.305802807 -126.78664201,54.305802807 -126.786420353,54.305986518 -126.786420352,54.305986518 -126.786205367,54.306141389 -126.786205367,54.306141389 -126.786014016,54.306269718 -126.785927589,54.306447929 -126.785927587,54.306447932 -126.785767675,54.306594821 -126.785564464,54.306784861 -126.785335892,54.307065334 -126.785198337,54.307368452 -126.785140671,54.30764707 -126.78514067,54.307647072 -126.785140669,54.307647073 -126.785140668,54.307647074 -126.784926571,54.307816935 -126.784926571,54.307816936 -126.784644323,54.308015513 -126.784644323,54.308015513 -126.784447508,54.308149744 -126.784260291,54.308296126 -126.784114513,54.308434284 -126.784026651,54.30854354 -126.784026651,54.308543541 -126.783966466,54.308614352 -126.783855551,54.308771127 -126.7837648,54.308934269 -126.783764798,54.308934271 -126.783613725,54.30907533 -126.783613723,54.309075331 -126.783417232,54.309203565 -126.783417232,54.309203566 -126.783205373,54.309331522 -126.782998631,54.309459561 -126.78299863,54.309459561 -126.782570432,54.309703401 -126.782725582,54.309962949 -126.782725582,54.30996295 -126.782795581,54.310185975 -126.782795581,54.310185977 -126.782780423,54.310372483 -126.782780423,54.310372485 -126.782724689,54.310551259 -126.782667987,54.310747986 -126.782658336,54.310927592 -126.78268387,54.311119838 -126.78276059,54.311313027 -126.782888526,54.311507157 -126.783821024,54.31179698 -126.783821025,54.311796981 -126.784448274,54.31204523 -126.784448277,54.312045231 -126.784448278,54.312045232 -126.784698928,54.312244612 -126.784698929,54.312244613 -126.78469893,54.312244614 -126.784806713,54.312432379 -126.784806714,54.312432381 -126.784806714,54.312432382 -126.784812916,54.312603304 -126.784812916,54.312603304 -126.784803735,54.312773931 -126.784809445,54.312953833 -126.784809445,54.312953834 -126.784800279,54.313124469 -126.784791113,54.313295096 -126.784797299,54.313466013 -126.785094915,54.313618308 -126.785094917,54.313618309 -126.785336628,54.313793544 -126.785336629,54.313793545 -126.785529324,54.3139589 -126.785700966,54.314102887 -126.785700967,54.314102888 -126.785700968,54.31410289 -126.785700968,54.314102892 -126.785700968,54.314102893 -126.785700967,54.314102895 -126.785520032,54.314418201 -126.785428889,54.314779105 -126.785479871,54.315165595 -126.785654734,54.315472458 -126.785806527,54.315699979 -126.785806528,54.31569998 -126.785882902,54.315868191 -126.785882903,54.315868193 -126.785888142,54.316057067 -126.785922646,54.316273455 -126.785980362,54.316439322 -126.786074251,54.316599857 -126.786074252,54.316599858 -126.786141412,54.316780886 -126.786240246,54.316944506 -126.78637031,54.317099718 -126.78637031,54.317099719 -126.786450767,54.317224053 -126.786633994,54.317375246 -126.786995317,54.317550681 -126.787534738,54.317750356 -126.787534741,54.317750357 -126.787534743,54.317750358 -126.787534744,54.31775036 -126.787534745,54.317750361 -126.787534745,54.317750363 -126.787534745,54.317750365 -126.787534745,54.317750366 -126.787449408,54.317907616 -126.787449407,54.317907617 -126.787333521,54.31806131 -126.787216841,54.31822997 -126.787130378,54.318408174 -126.787130377,54.318408175 -126.787003776,54.318570664 -126.787003775,54.318570665 -126.78685187,54.318726695 -126.786737112,54.318859423 -126.787405047,54.31898854 -126.787405051,54.318988541 -126.787902514,54.319174464 -126.787902517,54.319174465 -126.787902519,54.319174467 -126.788105223,54.319376954 -126.788105224,54.319376955 -126.788105225,54.319376957 -126.788105225,54.319376959 -126.788098412,54.319567604 -126.788098412,54.319567606 -126.78809841,54.319567608 -126.787966677,54.319730005 -126.787865512,54.319895952 -126.788659301,54.32029106 -126.789396333,54.320598228 -126.789396335,54.320598229 -126.789396337,54.32059823 -126.789396338,54.320598231 -126.789396339,54.320598233 -126.789396339,54.320598235 -126.789396339,54.320598236 -126.789396338,54.320598238 -126.789241535,54.320840115 -126.789216217,54.32108936 -126.789216216,54.321089361 -126.789216215,54.321089363 -126.78903598,54.321295816 -126.788984091,54.321530591 -126.789043631,54.321758418 -126.789214603,54.321979296 -126.789214604,54.321979297 -126.789214604,54.321979299 -126.789249466,54.322157731 -126.789249466,54.322157733 -126.789195815,54.322329553 -126.789195814,54.322329554 -126.789118656,54.322493946 -126.789065322,54.322659777 -126.789076502,54.322833774 -126.789076502,54.322833775 -126.789053476,54.323008147 -126.789053475,54.323008149 -126.78898313,54.323172667 -126.788983129,54.323172669 -126.788857745,54.323312206 -126.788857744,54.323312207 -126.788701087,54.323429197 -126.788701085,54.323429199 -126.788438285,54.323550236 -126.788107121,54.323702976 -126.78810712,54.323702976 -126.788060075,54.323720096 -126.78799091,54.32386265 -126.788024959,54.324056046 -126.788301301,54.324287854 -126.788819927,54.324558063 -126.789827663,54.324885174 -126.790828216,54.325155215 -126.790828219,54.325155215 -126.790828221,54.325155217 -126.790828223,54.325155218 -126.790828224,54.32515522 -126.790828225,54.325155221 -126.790828225,54.325155223 -126.790828224,54.325155225 -126.790828223,54.325155226 -126.790828222,54.325155228 -126.79082822,54.325155229 -126.790828218,54.32515523 -126.789840538,54.325505697 -126.790426099,54.325675234 -126.7904261,54.325675235 -126.790687552,54.325770912 -126.791253188,54.32586618 -126.792123038,54.325961008 -126.793319532,54.325604354 -126.793319535,54.325604353 -126.794363738,54.325442658 -126.79436374,54.325442658 -126.794363743,54.325442658 -126.794363745,54.325442658 -126.795119801,54.325556369 -126.795119804,54.32555637 -126.795119807,54.325556371 -126.795119809,54.325556372 -126.79511981,54.325556373 -126.795490208,54.325883772 -126.795490209,54.325883774 -126.79549021,54.325883776 -126.795610325,54.326321465 -126.795610325,54.326321465 -126.795667456,54.326691075 -126.795919051,54.32687546 -126.795919052,54.326875461 -126.796110155,54.327040765 -126.796110156,54.327040766 -126.796245866,54.327187079 -126.796245867,54.32718708 -126.796355021,54.327350885 -126.796355021,54.327350886 -126.796437286,54.327538181 -126.796437287,54.327538182 -126.796488017,54.327739875 -126.796572484,54.327918212 -126.79672245,54.328085754 -126.796937934,54.32824251 -126.796937936,54.328242511 -126.796937937,54.328242513 -126.797029064,54.328423969 -126.797250853,54.328622794 -126.797621704,54.328878272 -126.797621705,54.328878273 -126.79786549,54.329081496 -126.797865492,54.329081498 -126.797989529,54.329286528 -126.79798953,54.329286529 -126.79798953,54.329286531 -126.79798953,54.329286533 -126.797919598,54.329444074 -126.797919597,54.329444075 -126.797819076,54.329598053 -126.797819075,54.329598053 -126.797670223,54.329793106 -126.797567403,54.329989997 -126.797496233,54.330170482 -126.797468277,54.330341779 -126.797468276,54.33034178 -126.797402714,54.330513376 -126.797383876,54.330705809 -126.797523349,54.330942076 -126.797839749,54.331225533 -126.79783975,54.331225535 -126.797839751,54.331225537 -126.797839751,54.331225538 -126.797839751,54.33122554 -126.79783975,54.331225542 -126.797839748,54.331225543 -126.797646707,54.331383828 -126.797646705,54.331383829 -126.797440228,54.331505913 -126.797263506,54.33164652</coordinates></LinearRing></outerBoundaryIs></Polygon>
  </Placemark>
</Folder>
</Document></kml>
